[{"spaceTrack":{"CCSDS_OMM_VERS":"2.0","COMMENT":"GENERATED VIA SPACE-TRACK.ORG API","CREATION_DATE":"2021-10-26T06:46:11","ORIGINATOR":"18 SPCS","OBJECT_NAME":"STARLINK-2211","OBJECT_ID":"2021-017BJ","CENTER_NAME":"EARTH","REF_FRAME":"TEME","TIME_SYSTEM":"UTC","MEAN_ELEMENT_THEORY":"SGP4","EPOCH":"2021-10-26T01:07:08.533056","MEAN_MOTION":15.06395101,"ECCENTRICITY":0.0001946,"INCLINATION":53.0561,"RA_OF_ASC_NODE":174.9126,"ARG_OF_PERICENTER":72.0855,"MEAN_ANOMALY":288.0346,"EPHEMERIS_TYPE":0,"CLASSIFICATION_TYPE":"U","NORAD_CAT_ID":47778,"ELEMENT_SET_NO":999,"REV_AT_EPOCH":3660,"BSTAR":0.000018858,"MEAN_MOTION_DOT":-1e-8,"MEAN_MOTION_DDOT":0,"SEMIMAJOR_AXIS":6925.364,"PERIOD":95.592,"APOAPSIS":548.576,"PERIAPSIS":545.881,"OBJECT_TYPE":"PAYLOAD","RCS_SIZE":"LARGE","COUNTRY_CODE":"US","LAUNCH_DATE":"2021-03-04","SITE":"AFETR","DECAY_DATE":null,"DECAYED":0,"FILE":3184097,"GP_ID":188160159,"TLE_LINE0":"0 STARLINK-2211","TLE_LINE1":"1 47778U 21017BJ  21299.04662654 -.00000001  00000-0  18858-4 0  9996","TLE_LINE2":"2 47778  53.0561 174.9126 0001946  72.0855 288.0346 15.06395101 36609"},"height_km":547.145653560372,"latitude":24.464776180379012,"launch":"5fbfecfe54ceb10a5664c80b","longitude":-76.93943245807986,"velocity_kms":7.592399750236013,"version":"v1.0","id":"604bd0ab7554c90006085b23"},{"spaceTrack":{"CCSDS_OMM_VERS":"2.0","COMMENT":"GENERATED VIA SPACE-TRACK.ORG API","CREATION_DATE":"2021-10-26T06:26:11","ORIGINATOR":"18 SPCS","OBJECT_NAME":"STARLINK-2181","OBJECT_ID":"2021-017AT","CENTER_NAME":"EARTH","REF_FRAME":"TEME","TIME_SYSTEM":"UTC","MEAN_ELEMENT_THEORY":"SGP4","EPOCH":"2021-10-25T23:22:58.503072","MEAN_MOTION":15.0638638,"ECCENTRICITY":0.0001933,"INCLINATION":53.0553,"RA_OF_ASC_NODE":179.9574,"ARG_OF_PERICENTER":78.0143,"MEAN_ANOMALY":282.1063,"EPHEMERIS_TYPE":0,"CLASSIFICATION_TYPE":"U","NORAD_CAT_ID":47763,"ELEMENT_SET_NO":999,"REV_AT_EPOCH":3651,"BSTAR":-0.000015862,"MEAN_MOTION_DOT":-0.00000518,"MEAN_MOTION_DDOT":0,"SEMIMAJOR_AXIS":6925.39,"PERIOD":95.593,"APOAPSIS":548.594,"PERIAPSIS":545.917,"OBJECT_TYPE":"PAYLOAD","RCS_SIZE":"LARGE","COUNTRY_CODE":"US","LAUNCH_DATE":"2021-03-04","SITE":"AFETR","DECAY_DATE":null,"DECAYED":0,"FILE":3183947,"GP_ID":188156027,"TLE_LINE0":"0 STARLINK-2181","TLE_LINE1":"1 47763U 21017AT  21298.97428823 -.00000518  00000-0 -15862-4 0  9995","TLE_LINE2":"2 47763  53.0553 179.9574 0001933  78.0143 282.1063 15.06386380 36518"},"height_km":550.8448713138177,"latitude":45.802266858891954,"launch":"5fbfecfe54ceb10a5664c80b","longitude":-41.82611261939057,"velocity_kms":7.592801073656434,"version":"v1.0","id":"604bd0ab7554c90006085b25"},{"spaceTrack":{"CCSDS_OMM_VERS":"2.0","COMMENT":"GENERATED VIA SPACE-TRACK.ORG API","CREATION_DATE":"2021-10-26T06:46:11","ORIGINATOR":"18 SPCS","OBJECT_NAME":"STARLINK-2168","OBJECT_ID":"2021-017AF","CENTER_NAME":"EARTH","REF_FRAME":"TEME","TIME_SYSTEM":"UTC","MEAN_ELEMENT_THEORY":"SGP4","EPOCH":"2021-10-25T23:23:39.051456","MEAN_MOTION":15.06396812,"ECCENTRICITY":0.000177,"INCLINATION":53.0515,"RA_OF_ASC_NODE":155.0649,"ARG_OF_PERICENTER":73.2918,"MEAN_ANOMALY":286.8265,"EPHEMERIS_TYPE":0,"CLASSIFICATION_TYPE":"U","NORAD_CAT_ID":47751,"ELEMENT_SET_NO":999,"REV_AT_EPOCH":3686,"BSTAR":-0.000029798,"MEAN_MOTION_DOT":-0.00000725,"MEAN_MOTION_DDOT":0,"SEMIMAJOR_AXIS":6925.358,"PERIOD":95.592,"APOAPSIS":548.449,"PERIAPSIS":545.998,"OBJECT_TYPE":"PAYLOAD","RCS_SIZE":"LARGE","COUNTRY_CODE":"US","LAUNCH_DATE":"2021-03-04","SITE":"AFETR","DECAY_DATE":null,"DECAYED":0,"FILE":3184086,"GP_ID":188159484,"TLE_LINE0":"0 STARLINK-2168","TLE_LINE1":"1 47751U 21017AF  21298.97475754 -.00000725  00000-0 -29798-4 0  9990","TLE_LINE2":"2 47751  53.0515 155.0649 0001770  73.2918 286.8265 15.06396812 36861"},"height_km":550.6080330227014,"latitude":44.46847768964572,"launch":"5fbfecfe54ceb10a5664c80b","longitude":-69.74989115064928,"velocity_kms":7.592741498463185,"version":"v1.0","id":"604bd0ab7554c90006085b2d"},{"spaceTrack":{"CCSDS_OMM_VERS":"2.0","COMMENT":"GENERATED VIA SPACE-TRACK.ORG API","CREATION_DATE":"2021-10-25T14:36:12","ORIGINATOR":"18 SPCS","OBJECT_NAME":"STARLINK-2193","OBJECT_ID":"2021-017BA","CENTER_NAME":"EARTH","REF_FRAME":"TEME","TIME_SYSTEM":"UTC","MEAN_ELEMENT_THEORY":"SGP4","EPOCH":"2021-10-25T09:03:05.949216","MEAN_MOTION":15.06402346,"ECCENTRICITY":0.0001759,"INCLINATION":53.0545,"RA_OF_ASC_NODE":172.7328,"ARG_OF_PERICENTER":76.4285,"MEAN_ANOMALY":283.6899,"EPHEMERIS_TYPE":0,"CLASSIFICATION_TYPE":"U","NORAD_CAT_ID":47770,"ELEMENT_SET_NO":999,"REV_AT_EPOCH":3656,"BSTAR":0.00011873,"MEAN_MOTION_DOT":0.00001487,"MEAN_MOTION_DDOT":0,"SEMIMAJOR_AXIS":6925.341,"PERIOD":95.592,"APOAPSIS":548.425,"PERIAPSIS":545.988,"OBJECT_TYPE":"PAYLOAD","RCS_SIZE":"LARGE","COUNTRY_CODE":"US","LAUNCH_DATE":"2021-03-04","SITE":"AFETR","DECAY_DATE":null,"DECAYED":0,"FILE":3183279,"GP_ID":188118449,"TLE_LINE0":"0 STARLINK-2193","TLE_LINE1":"1 47770U 21017BA  21298.37715219  .00001487  00000-0  11873-3 0  9996","TLE_LINE2":"2 47770  53.0545 172.7328 0001759  76.4285 283.6899 15.06402346 36569"},"height_km":550.9134047914386,"latitude":45.87381146035418,"launch":"5fbfecfe54ceb10a5664c80b","longitude":-51.55757713604928,"velocity_kms":7.592707213881151,"version":"v1.0","id":"604bd0ae7112b2000695befd"},{"spaceTrack":{"CCSDS_OMM_VERS":"2.0","COMMENT":"GENERATED VIA SPACE-TRACK.ORG API","CREATION_DATE":"2021-10-26T06:46:11","ORIGINATOR":"18 SPCS","OBJECT_NAME":"STARLINK-2183","OBJECT_ID":"2021-017AV","CENTER_NAME":"EARTH","REF_FRAME":"TEME","TIME_SYSTEM":"UTC","MEAN_ELEMENT_THEORY":"SGP4","EPOCH":"2021-10-26T01:05:09.103200","MEAN_MOTION":15.06398876,"ECCENTRICITY":0.0001712,"INCLINATION":53.0549,"RA_OF_ASC_NODE":169.7338,"ARG_OF_PERICENTER":68.8149,"MEAN_ANOMALY":291.3022,"EPHEMERIS_TYPE":0,"CLASSIFICATION_TYPE":"U","NORAD_CAT_ID":47765,"ELEMENT_SET_NO":999,"REV_AT_EPOCH":3667,"BSTAR":-0.000041363,"MEAN_MOTION_DOT":-0.00000898,"MEAN_MOTION_DDOT":0,"SEMIMAJOR_AXIS":6925.352,"PERIOD":95.592,"APOAPSIS":548.403,"PERIAPSIS":546.031,"OBJECT_TYPE":"PAYLOAD","RCS_SIZE":"LARGE","COUNTRY_CODE":"US","LAUNCH_DATE":"2021-03-04","SITE":"AFETR","DECAY_DATE":null,"DECAYED":0,"FILE":3184094,"GP_ID":188160104,"TLE_LINE0":"0 STARLINK-2183","TLE_LINE1":"1 47765U 21017AV  21299.04524425 -.00000898  00000-0 -41363-4 0  9997","TLE_LINE2":"2 47765  53.0549 169.7338 0001712  68.8149 291.3022 15.06398876 36675"},"height_km":547.89620126506,"latitude":29.93330091827855,"launch":"5fbfecfe54ceb10a5664c80b","longitude":-76.50090003130197,"velocity_kms":7.592576249198327,"version":"v1.0","id":"604bd0ae7112b2000695bf01"},{"spaceTrack":{"CCSDS_OMM_VERS":"2.0","COMMENT":"GENERATED VIA SPACE-TRACK.ORG API","CREATION_DATE":"2021-10-26T06:46:11","ORIGINATOR":"18 SPCS","OBJECT_NAME":"STARLINK-2196","OBJECT_ID":"2021-017BD","CENTER_NAME":"EARTH","REF_FRAME":"TEME","TIME_SYSTEM":"UTC","MEAN_ELEMENT_THEORY":"SGP4","EPOCH":"2021-10-26T02:36:01.713888","MEAN_MOTION":15.06407896,"ECCENTRICITY":0.0001944,"INCLINATION":53.0546,"RA_OF_ASC_NODE":184.4564,"ARG_OF_PERICENTER":70.5841,"MEAN_ANOMALY":289.5358,"EPHEMERIS_TYPE":0,"CLASSIFICATION_TYPE":"U","NORAD_CAT_ID":47773,"ELEMENT_SET_NO":999,"REV_AT_EPOCH":3646,"BSTAR":6.2252e-7,"MEAN_MOTION_DOT":-0.00000272,"MEAN_MOTION_DDOT":0,"SEMIMAJOR_AXIS":6925.324,"PERIOD":95.592,"APOAPSIS":548.536,"PERIAPSIS":545.843,"OBJECT_TYPE":"PAYLOAD","RCS_SIZE":"LARGE","COUNTRY_CODE":"US","LAUNCH_DATE":"2021-03-04","SITE":"AFETR","DECAY_DATE":null,"DECAYED":0,"FILE":3184097,"GP_ID":188159657,"TLE_LINE0":"0 STARLINK-2196","TLE_LINE1":"1 47773U 21017BD  21299.10835317 -.00000272  00000-0  62252-6 0  9995","TLE_LINE2":"2 47773  53.0546 184.4564 0001944  70.5841 289.5358 15.06407896 36463"},"height_km":549.8513469278178,"latitude":41.69059356727514,"launch":"5fbfecfe54ceb10a5664c80b","longitude":-45.2322524426018,"velocity_kms":7.592923938559388,"version":"v1.0","id":"604bd0ae7112b2000695bf02"},{"spaceTrack":{"CCSDS_OMM_VERS":"2.0","COMMENT":"GENERATED VIA SPACE-TRACK.ORG API","CREATION_DATE":"2021-10-26T06:46:11","ORIGINATOR":"18 SPCS","OBJECT_NAME":"STARLINK-2158","OBJECT_ID":"2021-017Y","CENTER_NAME":"EARTH","REF_FRAME":"TEME","TIME_SYSTEM":"UTC","MEAN_ELEMENT_THEORY":"SGP4","EPOCH":"2021-10-25T22:34:32.090016","MEAN_MOTION":15.06400281,"ECCENTRICITY":0.0001701,"INCLINATION":53.0564,"RA_OF_ASC_NODE":165.2166,"ARG_OF_PERICENTER":78.8571,"MEAN_ANOMALY":281.2609,"EPHEMERIS_TYPE":0,"CLASSIFICATION_TYPE":"U","NORAD_CAT_ID":47744,"ELEMENT_SET_NO":999,"REV_AT_EPOCH":3672,"BSTAR":0.00010922,"MEAN_MOTION_DOT":0.00001346,"MEAN_MOTION_DDOT":0,"SEMIMAJOR_AXIS":6925.348,"PERIOD":95.592,"APOAPSIS":548.391,"PERIAPSIS":546.035,"OBJECT_TYPE":"PAYLOAD","RCS_SIZE":"LARGE","COUNTRY_CODE":"US","LAUNCH_DATE":"2021-03-04","SITE":"AFETR","DECAY_DATE":null,"DECAYED":0,"FILE":3184083,"GP_ID":188159443,"TLE_LINE0":"0 STARLINK-2158","TLE_LINE1":"1 47744U 21017Y   21298.94064919  .00001346  00000-0  10922-3 0  9992","TLE_LINE2":"2 47744  53.0564 165.2166 0001701  78.8571 281.2609 15.06400281 36726"},"height_km":564.4132365318956,"latitude":-47.109708501692616,"launch":"5fbfecfe54ceb10a5664c80b","longitude":126.62412033445865,"velocity_kms":7.5782035435839035,"version":"v1.0","id":"604bd0ae7112b2000695bf0b"}]